{
  "type": "FeatureCollection",
  "features": [
    {
      "type": "Feature",
      "properties": {
        "norad_id": 44333,
        "name": "AT&T T-16",
        "group": "intelsat",
        "lat": 0.01669312981298933,
        "lon": 59.638443209061606,
        "alt_km": 35785.74204518258,
        "timestamp": "2025-12-17T04:57:44.067852+00:00",
        "meta_object_name": "AT&T T-16",
        "meta_object_id": "2019-034A",
        "meta_epoch": "2025-12-16T16:18:06.646176",
        "meta_mean_motion": 1.00269796,
        "meta_eccentricity": 7.975e-05,
        "meta_inclination": 0.0222,
        "meta_ra_of_asc_node": 61.0457,
        "meta_arg_of_pericenter": 73.1825,
        "meta_mean_anomaly": 95.0089,
        "meta_ephemeris_type": 0,
        "meta_classification_type": "U",
        "meta_norad_cat_id": 44333,
        "meta_element_set_no": 999,
        "meta_rev_at_epoch": 2380,
        "meta_bstar": 0,
        "meta_mean_motion_dot": -9.1e-07,
        "meta_mean_motion_ddot": 0,
        "tle_line1": "1 44333U 19034A   25350.67924359 -.00000091  00000+0  00000+0 0  9993",
        "tle_line2": "2 44333   0.0222  61.0457 0000797  73.1825  95.0089  1.00269796 23801"
      },
      "geometry": {
        "type": "Point",
        "coordinates": [
          59.638443209061606,
          0.01669312981298933
        ]
      }
    },
    {
      "type": "Feature",
      "properties": {
        "norad_id": 44476,
        "name": "INTELSAT 39 (IS-39)",
        "group": "intelsat",
        "lat": -0.03983992534547025,
        "lon": -137.5330476163199,
        "alt_km": 35785.55761403612,
        "timestamp": "2025-12-17T04:57:44.067862+00:00",
        "meta_object_name": "INTELSAT 39 (IS-39)",
        "meta_object_id": "2019-049B",
        "meta_epoch": "2025-12-16T15:21:48.311136",
        "meta_mean_motion": 1.00270803,
        "meta_eccentricity": 0.00013758,
        "meta_inclination": 0.0182,
        "meta_ra_of_asc_node": 330.6719,
        "meta_arg_of_pericenter": 169.661,
        "meta_mean_anomaly": 237.5916,
        "meta_ephemeris_type": 0,
        "meta_classification_type": "U",
        "meta_norad_cat_id": 44476,
        "meta_element_set_no": 999,
        "meta_rev_at_epoch": 2329,
        "meta_bstar": 0,
        "meta_mean_motion_dot": 5.7e-07,
        "meta_mean_motion_ddot": 0,
        "tle_line1": "1 44476U 19049B   25350.64014249  .00000057  00000+0  00000+0 0  9993",
        "tle_line2": "2 44476   0.0182 330.6719 0001375 169.6610 237.5916  1.00270803 23292"
      },
      "geometry": {
        "type": "Point",
        "coordinates": [
          -137.5330476163199,
          -0.03983992534547025
        ]
      }
    },
    {
      "type": "Feature",
      "properties": {
        "norad_id": 46114,
        "name": "GALAXY 30 (G-30)",
        "group": "intelsat",
        "lat": 0.02465515864582583,
        "lon": 35.52883780927109,
        "alt_km": 35791.89005379932,
        "timestamp": "2025-12-17T04:57:44.067873+00:00",
        "meta_object_name": "GALAXY 30 (G-30)",
        "meta_object_id": "2020-056C",
        "meta_epoch": "2025-12-16T10:32:38.625216",
        "meta_mean_motion": 1.00271809,
        "meta_eccentricity": 0.00020504,
        "meta_inclination": 0.0174,
        "meta_ra_of_asc_node": 8.9673,
        "meta_arg_of_pericenter": 254.0657,
        "meta_mean_anomaly": 215.4609,
        "meta_ephemeris_type": 0,
        "meta_classification_type": "U",
        "meta_norad_cat_id": 46114,
        "meta_element_set_no": 999,
        "meta_rev_at_epoch": 1946,
        "meta_bstar": 0,
        "meta_mean_motion_dot": 6e-07,
        "meta_mean_motion_ddot": 0,
        "tle_line1": "1 46114U 20056C   25350.43933594  .00000060  00000+0  00000+0 0  9998",
        "tle_line2": "2 46114   0.0174   8.9673 0002050 254.0657 215.4609  1.00271809 19464"
      },
      "geometry": {
        "type": "Point",
        "coordinates": [
          35.52883780927109,
          0.02465515864582583
        ]
      }
    },
    {
      "type": "Feature",
      "properties": {
        "norad_id": 54026,
        "name": "GALAXY 33 (G-33)",
        "group": "intelsat",
        "lat": 0.025023883952341407,
        "lon": 27.53716301821829,
        "alt_km": 35790.13993614245,
        "timestamp": "2025-12-17T04:57:44.067883+00:00",
        "meta_object_name": "GALAXY 33 (G-33)",
        "meta_object_id": "2022-128A",
        "meta_epoch": "2025-12-16T16:08:58.794144",
        "meta_mean_motion": 1.00273301,
        "meta_eccentricity": 0.00017622,
        "meta_inclination": 0.0159,
        "meta_ra_of_asc_node": 355.4213,
        "meta_arg_of_pericenter": 264.714,
        "meta_mean_anomaly": 294.6799,
        "meta_ephemeris_type": 0,
        "meta_classification_type": "U",
        "meta_norad_cat_id": 54026,
        "meta_element_set_no": 999,
        "meta_rev_at_epoch": 1191,
        "meta_bstar": 0,
        "meta_mean_motion_dot": 1.03e-06,
        "meta_mean_motion_ddot": 0,
        "tle_line1": "1 54026U 22128A   25350.67290271  .00000103  00000+0  00000+0 0  9993",
        "tle_line2": "2 54026   0.0159 355.4213 0001762 264.7140 294.6799  1.00273301 11912"
      },
      "geometry": {
        "type": "Point",
        "coordinates": [
          27.53716301821829,
          0.025023883952341407
        ]
      }
    },
    {
      "type": "Feature",
      "properties": {
        "norad_id": 54027,
        "name": "GALAXY 34 (G-34)",
        "group": "intelsat",
        "lat": 0.03950022952087216,
        "lon": 31.596140344002922,
        "alt_km": 35790.0944045398,
        "timestamp": "2025-12-17T04:57:44.067894+00:00",
        "meta_object_name": "GALAXY 34 (G-34)",
        "meta_object_id": "2022-128B",
        "meta_epoch": "2025-12-16T10:54:44.613792",
        "meta_mean_motion": 1.00271358,
        "meta_eccentricity": 0.00014405,
        "meta_inclination": 0.0238,
        "meta_ra_of_asc_node": 335.9527,
        "meta_arg_of_pericenter": 285.2083,
        "meta_mean_anomaly": 218.9464,
        "meta_ephemeris_type": 0,
        "meta_classification_type": "U",
        "meta_norad_cat_id": 54027,
        "meta_element_set_no": 999,
        "meta_rev_at_epoch": 1208,
        "meta_bstar": 0,
        "meta_mean_motion_dot": 0,
        "meta_mean_motion_ddot": 0,
        "tle_line1": "1 54027U 22128B   25350.45468303  .00000000  00000+0  00000+0 0  9999",
        "tle_line2": "2 54027   0.0238 335.9527 0001440 285.2083 218.9464  1.00271358 12086"
      },
      "geometry": {
        "type": "Point",
        "coordinates": [
          31.596140344002922,
          0.03950022952087216
        ]
      }
    },
    {
      "type": "Feature",
      "properties": {
        "norad_id": 54243,
        "name": "GALAXY 31 (G-31)",
        "group": "intelsat",
        "lat": 0.020957126183637573,
        "lon": 39.51785208387088,
        "alt_km": 35789.090968744444,
        "timestamp": "2025-12-17T04:57:44.067904+00:00",
        "meta_object_name": "GALAXY 31 (G-31)",
        "meta_object_id": "2022-153A",
        "meta_epoch": "2025-12-16T16:12:22.196160",
        "meta_mean_motion": 1.00271723,
        "meta_eccentricity": 0.00014666,
        "meta_inclination": 0.0164,
        "meta_ra_of_asc_node": 21.1296,
        "meta_arg_of_pericenter": 259.4145,
        "meta_mean_anomaly": 287.106,
        "meta_ephemeris_type": 0,
        "meta_classification_type": "U",
        "meta_norad_cat_id": 54243,
        "meta_element_set_no": 999,
        "meta_rev_at_epoch": 530,
        "meta_bstar": 0,
        "meta_mean_motion_dot": 0,
        "meta_mean_motion_ddot": 0,
        "tle_line1": "1 54243U 22153A   25350.67525690  .00000000  00000+0  00000+0 0  9994",
        "tle_line2": "2 54243   0.0164  21.1296 0001466 259.4145 287.1060  1.00271723  5304"
      },
      "geometry": {
        "type": "Point",
        "coordinates": [
          39.51785208387088,
          0.020957126183637573
        ]
      }
    },
    {
      "type": "Feature",
      "properties": {
        "norad_id": 54244,
        "name": "GALAXY 32 (G-32)",
        "group": "intelsat",
        "lat": 0.03420723766266108,
        "lon": 69.53568796693281,
        "alt_km": 35790.24127375907,
        "timestamp": "2025-12-17T04:57:44.067915+00:00",
        "meta_object_name": "GALAXY 32 (G-32)",
        "meta_object_id": "2022-153B",
        "meta_epoch": "2025-12-16T09:02:30.087168",
        "meta_mean_motion": 1.00271706,
        "meta_eccentricity": 0.00025483,
        "meta_inclination": 0.0098,
        "meta_ra_of_asc_node": 331.441,
        "meta_arg_of_pericenter": 345.8415,
        "meta_mean_anomaly": 172.6123,
        "meta_ephemeris_type": 0,
        "meta_classification_type": "U",
        "meta_norad_cat_id": 54244,
        "meta_element_set_no": 999,
        "meta_rev_at_epoch": 1131,
        "meta_bstar": 0,
        "meta_mean_motion_dot": -1.51e-06,
        "meta_mean_motion_ddot": 0,
        "tle_line1": "1 54244U 22153B   25350.37673712 -.00000151  00000+0  00000+0 0  9999",
        "tle_line2": "2 54244   0.0098 331.4410 0002548 345.8415 172.6123  1.00271706 11315"
      },
      "geometry": {
        "type": "Point",
        "coordinates": [
          69.53568796693281,
          0.03420723766266108
        ]
      }
    }
  ]
}